{"type": "FeatureCollection", "features": [ {"type": "Feature", "properties": {"norad_id": 66564, "name": "STARLINK-35358", "group": "last-30-days", "lat": 35.75034326368187, "lon": -163.3459072962207, "alt_km": 393.11153041789294, "timestamp": "2025-12-21T22:41:40.162921+00:00", "meta": {"OBJECT_NAME": "STARLINK-35358", "OBJECT_ID": "2025-268H", "EPOCH": "2025-12-21T14:00:01.999872", "MEAN_MOTION": 15.56437529, "ECCENTRICITY": 0.00013149, "INCLINATION": 43.001, "RA_OF_ASC_NODE": 69.374, "ARG_OF_PERICENTER": 260.9658, "MEAN_ANOMALY": 347.8697, "EPHEMERIS_TYPE": 0, "CLASSIFICATION_TYPE": "U", "NORAD_CAT_ID": 66564, "ELEMENT_SET_NO": 999, "REV_AT_EPOCH": 604, "BSTAR": -0.00082279761, "MEAN_MOTION_DOT": -0.00059668, "MEAN_MOTION_DDOT": 0}, "tle": {"line1": "1 66564U 25268H   25355.58335648 -.00059668  00000+0 -82280-3 0  9990", "line2": "2 66564  43.0010  69.3740 0001314 260.9658 347.8697 15.56437529  6042"}}, "geometry": {"type": "Point", "coordinates": [-163.3459072962207, 35.75034326368187]}}, {"type": "Feature", "properties": {"norad_id": 66565, "name": "STARLINK-35893", "group": "last-30-days", "lat": 34.902341510576406, "lon": -161.24485804690758, "alt_km": 393.3674794735325, "timestamp": "2025-12-21T22:41:40.162933+00:00", "meta": {"OBJECT_NAME": "STARLINK-35893", "OBJECT_ID": "2025-268J", "EPOCH": "2025-12-21T14:00:01.999872", "MEAN_MOTION": 15.56414888, "ECCENTRICITY": 0.00014056, "INCLINATION": 43.0009, "RA_OF_ASC_NODE": 69.3688, "ARG_OF_PERICENTER": 269.7551, "MEAN_ANOMALY": 341.0103, "EPHEMERIS_TYPE": 0, "CLASSIFICATION_TYPE": "U", "NORAD_CAT_ID": 66565, "ELEMENT_SET_NO": 999, "REV_AT_EPOCH": 608, "BSTAR": -0.00045735834, "MEAN_MOTION_DOT": -0.00033411, "MEAN_MOTION_DDOT": 0}, "tle": {"line1": "1 66565U 25268J   25355.58335648 -.00033411  00000+0 -45736-3 0  9994", "line2": "2 66565  43.0009  69.3688 0001405 269.7551 341.0103 15.56414888  6087"}}, "geometry": {"type": "Point", "coordinates": [-161.24485804690758, 34.902341510576406]}}, {"type": "Feature", "properties": {"norad_id": 66566, "name": "STARLINK-35871", "group": "last-30-days", "lat": 34.015883278547186, "lon": -159.18048084795984, "alt_km": 393.3007495109405, "timestamp": "2025-12-21T22:41:40.162943+00:00", "meta": {"OBJECT_NAME": "STARLINK-35871", "OBJECT_ID": "2025-268K", "EPOCH": "2025-12-21T14:00:01.999872", "MEAN_MOTION": 15.56437939, "ECCENTRICITY": 0.0001296, "INCLINATION": 43.001, "RA_OF_ASC_NODE": 69.364, "ARG_OF_PERICENTER": 258.0414, "MEAN_ANOMALY": 354.6269, "EPHEMERIS_TYPE": 0, "CLASSIFICATION_TYPE": "U", "NORAD_CAT_ID": 66566, "ELEMENT_SET_NO": 999, "REV_AT_EPOCH": 608, "BSTAR": -0.00076460248, "MEAN_MOTION_DOT": -0.00055504, "MEAN_MOTION_DDOT": 0}, "tle": {"line1": "1 66566U 25268K   25355.58335648 -.00055504  00000+0 -76460-3 0  9990", "line2": "2 66566  43.0010  69.3640 0001296 258.0414 354.6269 15.56437939  6080"}}, "geometry": {"type": "Point", "coordinates": [-159.18048084795984, 34.015883278547186]}}, {"type": "Feature", "properties": {"norad_id": 66567, "name": "STARLINK-35825", "group": "last-30-days", "lat": 33.097250033409416, "lon": -157.16353388732355, "alt_km": 393.55097307838696, "timestamp": "2025-12-21T22:41:40.162953+00:00", "meta": {"OBJECT_NAME": "STARLINK-35825", "OBJECT_ID": "2025-268L", "EPOCH": "2025-12-21T14:00:01.999872", "MEAN_MOTION": 15.56413941, "ECCENTRICITY": 0.00012735, "INCLINATION": 43.0009, "RA_OF_ASC_NODE": 69.3594, "ARG_OF_PERICENTER": 270.801, "MEAN_ANOMALY": 343.8001, "EPHEMERIS_TYPE": 0, "CLASSIFICATION_TYPE": "U", "NORAD_CAT_ID": 66567, "ELEMENT_SET_NO": 999, "REV_AT_EPOCH": 608, "BSTAR": -0.0003953324, "MEAN_MOTION_DOT": -0.00028945, "MEAN_MOTION_DDOT": 0}, "tle": {"line1": "1 66567U 25268L   25355.58335648 -.00028945  00000+0 -39533-3 0  9990", "line2": "2 66567  43.0009  69.3594 0001273 270.8010 343.8001 15.56413941  6087"}}, "geometry": {"type": "Point", "coordinates": [-157.16353388732355, 33.097250033409416]}}, {"type": "Feature", "properties": {"norad_id": 66568, "name": "STARLINK-35803", "group": "last-30-days", "lat": 40.335823606027695, "lon": -178.40942420295076, "alt_km": 396.9501763415183, "timestamp": "2025-12-21T22:41:40.162965+00:00", "meta": {"OBJECT_NAME": "STARLINK-35803", "OBJECT_ID": "2025-268M", "EPOCH": "2025-12-21T14:00:01.999872", "MEAN_MOTION": 15.54084704, "ECCENTRICITY": 0.00016092, "INCLINATION": 43.0011, "RA_OF_ASC_NODE": 69.3951, "ARG_OF_PERICENTER": 275.03, "MEAN_ANOMALY": 323.6194, "EPHEMERIS_TYPE": 0, "CLASSIFICATION_TYPE": "U", "NORAD_CAT_ID": 66568, "ELEMENT_SET_NO": 999, "REV_AT_EPOCH": 608, "BSTAR": 0.016608115, "MEAN_MOTION_DOT": 0.01216258, "MEAN_MOTION_DDOT": 0}, "tle": {"line1": "1 66568U 25268M   25355.58335648  .01216258  00000+0  16608-1 0  9992", "line2": "2 66568  43.0011  69.3951 0001609 275.0300 323.6194 15.54084704  6088"}}, "geometry": {"type": "Point", "coordinates": [-178.40942420295076, 40.335823606027695]}}, {"type": "Feature", "properties": {"norad_id": 66569, "name": "STARLINK-35835", "group": "last-30-days", "lat": 31.05069896534984, "lon": -153.04188964332687, "alt_km": 393.1433255856564, "timestamp": "2025-12-21T22:41:40.162976+00:00", "meta": {"OBJECT_NAME": "STARLINK-35835", "OBJECT_ID": "2025-268N", "EPOCH": "2025-12-21T08:16:29.270208", "MEAN_MOTION": 15.56432999, "ECCENTRICITY": 0.00011616, "INCLINATION": 42.9995, "RA_OF_ASC_NODE": 70.7539, "ARG_OF_PERICENTER": 262.3726, "MEAN_ANOMALY": 97.7004, "EPHEMERIS_TYPE": 0, "CLASSIFICATION_TYPE": "U", "NORAD_CAT_ID": 66569, "ELEMENT_SET_NO": 999, "REV_AT_EPOCH": 596, "BSTAR": 0.0017910305, "MEAN_MOTION_DOT": 0.00131842, "MEAN_MOTION_DDOT": 0}, "tle": {"line1": "1 66569U 25268N   25355.34478322  .00131842  00000+0  17910-2 0  9996", "line2": "2 66569  42.9995  70.7539 0001161 262.3726  97.7004 15.56432999  5960"}}, "geometry": {"type": "Point", "coordinates": [-153.04188964332687, 31.05069896534984]}}, {"type": "Feature", "properties": {"norad_id": 66570, "name": "STARLINK-35834", "group": "last-30-days", "lat": 30.10491388605884, "lon": -151.27462291420392, "alt_km": 392.98295810409127, "timestamp": "2025-12-21T22:41:40.162986+00:00", "meta": {"OBJECT_NAME": "STARLINK-35834", "OBJECT_ID": "2025-268P", "EPOCH": "2025-12-21T08:16:00.901632", "MEAN_MOTION": 15.5642501, "ECCENTRICITY": 0.00012506, "INCLINATION": 43.0001, "RA_OF_ASC_NODE": 70.7507, "ARG_OF_PERICENTER": 227.4548, "MEAN_ANOMALY": 132.6209, "EPHEMERIS_TYPE": 0, "CLASSIFICATION_TYPE": "U", "NORAD_CAT_ID": 66570, "ELEMENT_SET_NO": 999, "REV_AT_EPOCH": 596, "BSTAR": 0.0014812257, "MEAN_MOTION_DOT": 0.0010862, "MEAN_MOTION_DDOT": 0}, "tle": {"line1": "1 66570U 25268P   25355.34445488  .00108620  00000+0  14812-2 0  9991", "line2": "2 66570  43.0001  70.7507 0001250 227.4548 132.6209 15.56425010  5962"}}, "geometry": {"type": "Point", "coordinates": [-151.27462291420392, 30.10491388605884]}}, {"type": "Feature", "properties": {"norad_id": 66571, "name": "STARLINK-35836", "group": "last-30-days", "lat": 30.013716777257976, "lon": -151.1033942219047, "alt_km": 399.69840589291925, "timestamp": "2025-12-21T22:41:40.162996+00:00", "meta": {"OBJECT_NAME": "STARLINK-35836", "OBJECT_ID": "2025-268Q", "EPOCH": "2025-12-21T14:00:01.999872", "MEAN_MOTION": 15.56078895, "ECCENTRICITY": 9.34e-05, "INCLINATION": 43.0009, "RA_OF_ASC_NODE": 69.3396, "ARG_OF_PERICENTER": 269.233, "MEAN_ANOMALY": 352.918, "EPHEMERIS_TYPE": 0, "CLASSIFICATION_TYPE": "U", "NORAD_CAT_ID": 66571, "ELEMENT_SET_NO": 999, "REV_AT_EPOCH": 608, "BSTAR": -0.033317063, "MEAN_MOTION_DOT": -0.02121022, "MEAN_MOTION_DDOT": 0}, "tle": {"line1": "1 66571U 25268Q   25355.58335648 -.02121022  00000+0 -33317-1 0  9999", "line2": "2 66571  43.0009  69.3396 0000934 269.2330 352.9180 15.56078895  6086"}}, "geometry": {"type": "Point", "coordinates": [-151.1033942219047, 30.013716777257976]}}, {"type": "Feature", "properties": {"norad_id": 66572, "name": "STARLINK-35870", "group": "last-30-days", "lat": 28.186342636973844, "lon": -147.90623547418426, "alt_km": 395.3760712081985, "timestamp": "2025-12-21T22:41:40.163007+00:00", "meta": {"OBJECT_NAME": "STARLINK-35870", "OBJECT_ID": "2025-268R", "EPOCH": "2025-12-21T14:00:01.999872", "MEAN_MOTION": 15.56743383, "ECCENTRICITY": 0.00013494, "INCLINATION": 43.0009, "RA_OF_ASC_NODE": 69.3358, "ARG_OF_PERICENTER": 256.9003, "MEAN_ANOMALY": 7.1117, "EPHEMERIS_TYPE": 0, "CLASSIFICATION_TYPE": "U", "NORAD_CAT_ID": 66572, "ELEMENT_SET_NO": 999, "REV_AT_EPOCH": 608, "BSTAR": -0.014309655, "MEAN_MOTION_DOT": -0.00950553, "MEAN_MOTION_DDOT": 0}, "tle": {"line1": "1 66572U 25268R   25355.58335648 -.00950553  00000+0 -14310-1 0  9999", "line2": "2 66572  43.0009  69.3358 0001349 256.9003   7.1117 15.56743383  6086"}}, "geometry": {"type": "Point", "coordinates": [-147.90623547418426, 28.186342636973844]}}, {"type": "Feature", "properties": {"norad_id": 66573, "name": "STARLINK-35650", "group": "last-30-days", "lat": 26.84653252070215, "lon": -145.70831374067146, "alt_km": 394.01288815570024, "timestamp": "2025-12-21T22:41:40.163018+00:00", "meta": {"OBJECT_NAME": "STARLINK-35650", "OBJECT_ID": "2025-268S", "EPOCH": "2025-12-21T02:04:54.226272", "MEAN_MOTION": 15.5640231, "ECCENTRICITY": 0.00020619, "INCLINATION": 43.002, "RA_OF_ASC_NODE": 72.259, "ARG_OF_PERICENTER": 261.3393, "MEAN_ANOMALY": 98.7235, "EPHEMERIS_TYPE": 0, "CLASSIFICATION_TYPE": "U", "NORAD_CAT_ID": 66573, "ELEMENT_SET_NO": 999, "REV_AT_EPOCH": 592, "BSTAR": 0.0018204831, "MEAN_MOTION_DOT": 0.00133901, "MEAN_MOTION_DDOT": 0}, "tle": {"line1": "1 66573U 25268S   25355.08673873  .00133901  00000+0  18205-2 0  9996", "line2": "2 66573  43.0020  72.2590 0002061 261.3393  98.7235 15.56402310  5926"}}, "geometry": {"type": "Point", "coordinates": [-145.70831374067146, 26.84653252070215]}}]}